NORAD_CAT_ID,OBJECT_NAME,OBJECT_TYPE,EPOCH,MEAN_MOTION,ECCENTRICITY,INCLINATION,RA_OF_ASC_NODE,ARG_OF_PERICENTER,MEAN_ANOMALY,BSTAR,MEAN_MOTION_DOT,MEAN_MOTION_DDOT,TLE_LINE0,TLE_LINE1,TLE_LINE2,SEMIMAJOR_AXIS,PERIOD,APOGEE,PERIGEE,DECAYED
53545.0,STARLINK-4475,PAYLOAD,2024-07-10 11:26:33,15.08836784,0.0001405,53.2181,270.0067,75.4253,284.6895,5.3106e-05,5.57e-06,0.0,0 STARLINK-4475,1 53545U 22101U   24192.47677157  .00000557  00000-0  53106-4 0  9996,2 53545  53.2181 270.0067 0001405  75.4253 284.6895 15.08836784104638,6917.89,95.438,540.727,538.783,0.0
53545.0,STARLINK-4475,PAYLOAD,2024-07-10 14:37:19,15.08839719,0.0001389,53.2179,269.412,75.1391,284.9755,3.6259e-06,-2.3e-06,0.0,0 STARLINK-4475,1 53545U 22101U   24192.60925121 -.00000230  00000-0  36259-5 0  9998,2 53545  53.2179 269.4120 0001389  75.1391 284.9755 15.08839719105346,6917.881,95.438,540.707,538.785,0.0
53545.0,STARLINK-4475,PAYLOAD,2024-07-11 14:28:05,15.08846442,0.0001361,53.2175,264.9506,83.4134,276.7013,2.7982e-05,1.58e-06,0.0,0 STARLINK-4475,1 53545U 22101U   24193.60284544  .00000158  00000-0  27982-4 0  9996,2 53545  53.2175 264.9506 0001361  83.4134 276.7013 15.08846442105490,6917.861,95.437,540.667,538.784,0.0
53545.0,STARLINK-4475,PAYLOAD,2024-07-12 11:08:06,15.08838405,0.0001554,53.2176,261.085,100.6815,259.4352,5.129e-05,5.28e-06,0.0,0 STARLINK-4475,1 53545U 22101U   24194.46396942  .00000528  00000-0  51290-4 0  9997,2 53545  53.2176 261.0850 0001554 100.6815 259.4352 15.08838405104935,6917.885,95.438,540.825,538.675,0.0
53545.0,STARLINK-4475,PAYLOAD,2024-07-12 14:18:53,15.08840092,0.0001514,53.2175,260.4896,100.7995,259.3167,6.6112e-05,7.64e-06,0.0,0 STARLINK-4475,1 53545U 22101U   24194.59644812  .00000764  00000-0  66112-4 0  9994,2 53545  53.2175 260.4896 0001514 100.7995 259.3167 15.08840092105640,6917.88,95.438,540.792,538.698,0.0
53545.0,STARLINK-4475,PAYLOAD,2024-07-13 10:58:54,15.08840941,0.0001427,53.2171,256.6229,89.7914,270.3242,3.2991e-05,2.37e-06,0.0,0 STARLINK-4475,1 53545U 22101U   24195.45756957  .00000237  00000-0  32991-4 0  9997,2 53545  53.2171 256.6229 0001427  89.7914 270.3242 15.08840941105777,6917.878,95.437,540.73,538.755,0.0
53545.0,STARLINK-4475,PAYLOAD,2024-07-13 20:31:12,15.08840899,0.0001358,53.2165,254.8387,89.0527,271.062,-4.3342e-06,-3.57e-06,0.0,0 STARLINK-4475,1 53545U 22101U   24195.85501104 -.00000357  00000-0 -43342-5 0  9991,2 53545  53.2165 254.8387 0001358  89.0527 271.0620 15.08840899105142,6917.878,95.437,540.682,538.803,0.0
53545.0,STARLINK-4475,PAYLOAD,2024-07-14 04:28:09,15.08835265,0.0001506,53.2172,253.3591,110.5229,249.5925,-4.6467e-05,-1.027e-05,0.0,0 STARLINK-4475,1 53545U 22101U   24196.18621829 -.00001027  00000-0 -46467-4 0  9990,2 53545  53.2172 253.3591 0001506 110.5229 249.5925 15.08835265105199,6917.895,95.438,540.802,538.718,0.0
53545.0,STARLINK-4475,PAYLOAD,2024-07-14 10:49:41,15.08836353,0.0001443,53.2172,252.1704,102.7386,257.3767,-1.2859e-05,-4.93e-06,0.0,0 STARLINK-4475,1 53545U 22101U   24196.45117748 -.00000493  00000-0 -12859-4 0  9994,2 53545  53.2172 252.1704 0001443 102.7386 257.3767 15.08836353105920,6917.892,95.438,540.755,538.758,0.0
53545.0,STARLINK-4475,PAYLOAD,2024-07-14 20:22:00,15.08836211,0.0001488,53.2172,250.3858,108.3465,251.7689,-8.4259e-06,-4.22e-06,0.0,0 STARLINK-4475,1 53545U 22101U   24196.84861826 -.00000422  00000-0 -84259-5 0  9996,2 53545  53.2172 250.3858 0001488 108.3465 251.7689 15.08836211105989,6917.892,95.438,540.786,538.728,0.0
53545.0,STARLINK-4475,PAYLOAD,2024-07-15 10:40:28,15.08840269,0.0001439,53.2168,247.7085,99.267,260.8484,7.584e-05,9.19e-06,0.0,0 STARLINK-4475,1 53545U 22101U   24197.44477516  .00000919  00000-0  75840-4 0  9996,2 53545  53.2168 247.7085 0001439  99.2670 260.8484 15.08840269105384,6917.88,95.438,540.74,538.749,0.0
53545.0,STARLINK-4475,PAYLOAD,2024-07-15 20:12:47,15.08837838,0.0001429,53.2167,245.9245,98.7169,261.3985,6.4918e-05,7.45e-06,0.0,0 STARLINK-4475,1 53545U 22101U   24197.84221714  .00000745  00000-0  64918-4 0  9998,2 53545  53.2167 245.9245 0001429  98.7169 261.3985 15.08837838106131,6917.887,95.438,540.741,538.763,0.0
53545.0,STARLINK-4475,PAYLOAD,2024-07-16 10:31:15,15.08840881,0.0001367,53.216,243.2471,94.148,265.9669,0.00010381,1.365e-05,0.0,0 STARLINK-4475,1 53545U 22101U   24198.43837558  .00001365  00000-0  10381-3 0  9996,2 53545  53.2160 243.2471 0001367  94.1480 265.9669 15.08840881106224,6917.878,95.437,540.688,538.797,0.0
53545.0,STARLINK-4475,PAYLOAD,2024-07-17 10:22:02,15.08844716,0.0001378,53.2158,238.7856,84.99,275.1249,5.0726e-05,5.2e-06,0.0,0 STARLINK-4475,1 53545U 22101U   24199.43197443  .00000520  00000-0  50726-4 0  9999,2 53545  53.2158 238.7856 0001378  84.9900 275.1249 15.08844716105680,6917.866,95.437,540.684,538.778,0.0
53545.0,STARLINK-4475,PAYLOAD,2024-07-18 11:48:13,15.08840847,0.0001398,53.2159,234.0266,90.1666,269.9487,9.8421e-06,-1.31e-06,0.0,0 STARLINK-4475,1 53545U 22101U   24200.49182073 -.00000131  00000-0  98421-5 0  9995,2 53545  53.2159 234.0266 0001398  90.1666 269.9487 15.08840847105849,6917.878,95.438,540.71,538.776,0.0
53545.0,STARLINK-4475,PAYLOAD,2024-07-19 08:28:13,15.08843018,0.0001439,53.2162,230.1606,92.4915,267.6242,6.9898e-05,8.25e-06,0.0,0 STARLINK-4475,1 53545U 22101U   24201.35293885  .00000825  00000-0  69898-4 0  9999,2 53545  53.2162 230.1606 0001439  92.4915 267.6242 15.08843018106664,6917.871,95.437,540.732,538.741,0.0
53545.0,STARLINK-4475,PAYLOAD,2024-07-20 05:08:14,15.08841318,0.000148,53.2167,226.2959,92.2977,267.8184,9.5918e-05,1.239e-05,0.0,0 STARLINK-4475,1 53545U 22101U   24202.21405933  .00001239  00000-0  95918-4 0  9996,2 53545  53.2167 226.2959 0001480  92.2977 267.8184 15.08841318106105,6917.876,95.437,540.765,538.718,0.0
53545.0,STARLINK-4475,PAYLOAD,2024-07-20 08:19:00,15.08842916,0.0001482,53.2166,225.7007,93.3886,266.7275,0.00011137,1.485e-05,0.0,0 STARLINK-4475,1 53545U 22101U   24202.34653786  .00001485  00000-0  11137-3 0  9994,2 53545  53.2166 225.7007 0001482  93.3886 266.7275 15.08842916106817,6917.871,95.437,540.762,538.711,0.0
53545.0,STARLINK-4475,PAYLOAD,2024-07-21 04:59:02,15.08836811,0.0001527,53.2163,221.8343,94.7481,265.3686,4.0426e-06,-2.24e-06,0.0,0 STARLINK-4475,1 53545U 22101U   24203.20766569 -.00000224  00000-0  40426-5 0  9990,2 53545  53.2163 221.8343 0001527  94.7481 265.3686 15.08836811106256,6917.89,95.438,540.811,538.699,0.0
53545.0,STARLINK-4475,PAYLOAD,2024-07-21 11:20:34,15.08837279,0.0001472,53.2162,220.6445,93.4716,266.6445,-5.855e-07,-2.97e-06,0.0,0 STARLINK-4475,1 53545U 22101U   24203.47262574 -.00000297  00000-0 -58550-6 0  9995,2 53545  53.2162 220.6445 0001472  93.4716 266.6445 15.08837279106987,6917.889,95.438,540.772,538.735,0.0
53545.0,STARLINK-4475,PAYLOAD,2024-07-22 11:11:21,15.08840003,0.0001397,53.2159,216.1836,92.3018,267.8134,1.2798e-05,-8.4e-07,0.0,0 STARLINK-4475,1 53545U 22101U   24204.46622405 -.00000084  00000-0  12798-4 0  9993,2 53545  53.2159 216.1836 0001397  92.3018 267.8134 15.08840003106444,6917.88,95.438,540.712,538.779,0.0
53545.0,STARLINK-4475,PAYLOAD,2024-07-23 07:51:22,15.08843539,0.0001285,53.2156,212.3183,94.3343,265.7796,0.00011981,1.62e-05,0.0,0 STARLINK-4475,1 53545U 22101U   24205.32733937  .00001620  00000-0  11981-3 0  9990,2 53545  53.2156 212.3183 0001285  94.3343 265.7796 15.08843539107262,6917.87,95.437,540.624,538.846,0.0
53545.0,STARLINK-4475,PAYLOAD,2024-07-24 04:31:23,15.08835854,0.0001224,53.2148,208.4541,103.4462,256.6667,4.0068e-06,-2.24e-06,0.0,0 STARLINK-4475,1 53545U 22101U   24206.18846874 -.00000224  00000-0  40068-5 0  9990,2 53545  53.2148 208.4541 0001224 103.4462 256.6667 15.08835854106709,6917.893,95.438,540.605,538.911,0.0
53545.0,STARLINK-4475,PAYLOAD,2024-07-24 07:42:09,15.08836232,0.0001245,53.215,207.8595,103.6992,256.4139,6.356e-06,-1.87e-06,0.0,0 STARLINK-4475,1 53545U 22101U   24206.32094865 -.00000187  00000-0  63560-5 0  9991,2 53545  53.2150 207.8595 0001245 103.6992 256.4139 15.08836232107419,6917.892,95.438,540.618,538.896,0.0
53545.0,STARLINK-4475,PAYLOAD,2024-07-25 05:57:33,15.08840908,0.0001322,53.2146,203.6977,107.5906,252.5231,5.7796e-05,6.32e-06,0.0,0 STARLINK-4475,1 53545U 22101U   24207.24830456  .00000632  00000-0  57796-4 0  9994,2 53545  53.2146 203.6977 0001322 107.5906 252.5231 15.08840908107556,6917.878,95.437,540.657,538.828,0.0
53545.0,STARLINK-4475,PAYLOAD,2024-07-25 07:32:56,15.08842367,0.000132,53.2149,203.4004,105.172,254.9418,6.6575e-05,7.72e-06,0.0,0 STARLINK-4475,1 53545U 22101U   24207.31454354  .00000772  00000-0  66575-4 0  9991,2 53545  53.2149 203.4004 0001320 105.1720 254.9418 15.08842367106872,6917.873,95.437,540.651,538.825,0.0
53545.0,STARLINK-4475,PAYLOAD,2024-07-26 04:12:57,15.08826284,0.0001403,53.2164,199.5321,78.1082,282.0067,0.00023703,3.485e-05,0.0,0 STARLINK-4475,1 53545U 22101U   24208.17566711  .00003485  00000-0  23703-3 0  9996,2 53545  53.2164 199.5321 0001403  78.1082 282.0067 15.08826284107006,6917.922,95.438,540.758,538.817,0.0
53545.0,STARLINK-4475,PAYLOAD,2024-07-26 05:48:20,15.08841868,0.0001533,53.2156,199.2334,80.7183,279.3983,9.916e-05,1.291e-05,0.0,0 STARLINK-4475,1 53545U 22101U   24208.24190344  .00001291  00000-0  99160-4 0  9993,2 53545  53.2156 199.2334 0001533  80.7183 279.3983 15.08841868107015,6917.875,95.437,540.8,538.679,0.0
53545.0,STARLINK-4475,PAYLOAD,2024-07-26 16:56:02,15.08841514,0.0001399,53.2153,197.1514,100.525,259.5899,6.4747e-05,7.43e-06,0.0,0 STARLINK-4475,1 53545U 22101U   24208.70558265  .00000743  00000-0  64747-4 0  9998,2 53545  53.2153 197.1514 0001399 100.5250 259.5899 15.08841514107772,6917.876,95.437,540.709,538.773,0.0
53545.0,STARLINK-4475,PAYLOAD,2024-07-27 05:39:07,15.0884166,0.000149,53.2153,194.7727,95.9182,264.198,3.1734e-05,2.17e-06,0.0,0 STARLINK-4475,1 53545U 22101U   24209.23550321  .00000217  00000-0  31734-4 0  9998,2 53545  53.2153 194.7727 0001490  95.9182 264.1980 15.08841660107858,6917.875,95.437,540.771,538.71,0.0
